MALLIGYONG-1            
1 58400U 23179A   24177.93101699  .00005472  00000+0  24860-3 0  9998
2 58400  97.4024  64.6318 0003116 128.8500 231.3014 15.21167510 33052
